NORAD_CAT_ID,OBJECT_NAME,OBJECT_TYPE,EPOCH,MEAN_MOTION,ECCENTRICITY,INCLINATION,RA_OF_ASC_NODE,ARG_OF_PERICENTER,MEAN_ANOMALY,BSTAR,MEAN_MOTION_DOT,MEAN_MOTION_DDOT,TLE_LINE0,TLE_LINE1,TLE_LINE2,SEMIMAJOR_AXIS,PERIOD,APOGEE,PERIGEE,DECAYED
55275.0,STARLINK-5260,PAYLOAD,2024-05-03 04:39:20,14.98327636,0.0003038,69.9982,287.7337,268.5932,91.4879,2.2629e-05,1.77e-06,0.0,0 STARLINK-5260,1 55275U 23010G   24124.19398842  .00000177  00000-0  22629-4 0  9997,2 55275  69.9982 287.7337 0003038 268.5932  91.4879 14.98327636 71774,6950.2,96.107,574.177,569.954,0.0
55275.0,STARLINK-5260,PAYLOAD,2024-05-03 14:16:08,14.98329537,0.0002954,69.9983,286.7235,269.8237,90.2584,1.857e-05,1.29e-06,0.0,0 STARLINK-5260,1 55275U 23010G   24124.59454745  .00000129  00000-0  18570-4 0  9993,2 55275  69.9983 286.7235 0002954 269.8237  90.2584 14.98329537 72154,6950.194,96.107,574.112,570.006,0.0
55275.0,STARLINK-5260,PAYLOAD,2024-05-03 20:40:41,14.98331033,0.0002973,69.9985,286.05,269.4718,90.6101,1.0642e-05,3.4e-07,0.0,0 STARLINK-5260,1 55275U 23010G   24124.86158652  .00000034  00000-0  10642-4 0  9998,2 55275  69.9985 286.0500 0002973 269.4718  90.6101 14.98331033 72192,6950.19,96.107,574.121,569.988,0.0
55275.0,STARLINK-5260,PAYLOAD,2024-05-04 04:41:21,14.98328502,0.0002975,69.9986,285.2083,269.6557,90.4261,2.0963e-05,1.57e-06,0.0,0 STARLINK-5260,1 55275U 23010G   24125.19538771  .00000157  00000-0  20963-4 0  9992,2 55275  69.9986 285.2083 0002975 269.6557  90.4261 14.98328502 71927,6950.198,96.107,574.13,569.995,0.0
55275.0,STARLINK-5260,PAYLOAD,2024-05-05 12:44:02,14.98329717,0.0003008,69.9988,281.8418,269.5434,90.5381,-2.5087e-06,-1.23e-06,0.0,0 STARLINK-5260,1 55275U 23010G   24126.53058717 -.00000123  00000-0 -25087-5 0  9996,2 55275  69.9988 281.8418 0003008 269.5434  90.5381 14.98329717 72120,6950.194,96.107,574.149,569.968,0.0
55275.0,STARLINK-5260,PAYLOAD,2024-05-05 14:20:10,14.98329639,0.0003011,69.9988,281.6735,269.5507,90.5307,-3.1183e-06,-1.3e-06,0.0,0 STARLINK-5260,1 55275U 23010G   24126.59734721 -.00000130  00000-0 -31183-5 0  9990,2 55275  69.9988 281.6735 0003011 269.5507  90.5307 14.98329639 72452,6950.194,96.107,574.152,569.966,0.0
55275.0,STARLINK-5260,PAYLOAD,2024-05-05 20:44:42,14.98333009,0.0003004,69.999,281.0002,269.7479,90.3336,1.9246e-05,1.37e-06,0.0,0 STARLINK-5260,1 55275U 23010G   24126.86438413  .00000137  00000-0  19246-4 0  9999,2 55275  69.9990 281.0002 0003004 269.7479  90.3336 14.98333009 72498,6950.184,96.107,574.136,569.961,0.0
55275.0,STARLINK-5260,PAYLOAD,2024-05-06 12:46:03,14.98333023,0.0002968,69.9992,279.317,270.3166,89.7653,2.3613e-05,1.89e-06,0.0,0 STARLINK-5260,1 55275U 23010G   24127.53198314  .00000189  00000-0  23613-4 0  9997,2 55275  69.9992 279.3170 0002968 270.3166  89.7653 14.98333023 72271,6950.184,96.107,574.111,569.986,0.0
55275.0,STARLINK-5260,PAYLOAD,2024-05-06 14:22:11,14.9833307,0.0002968,69.9992,279.1487,270.3306,89.7513,2.3827e-05,1.91e-06,0.0,0 STARLINK-5260,1 55275U 23010G   24127.59874296  .00000191  00000-0  23827-4 0  9993,2 55275  69.9992 279.1487 0002968 270.3306  89.7513 14.98333070 72600,6950.183,96.107,574.111,569.986,0.0
55275.0,STARLINK-5260,PAYLOAD,2024-05-06 19:10:35,14.98335926,0.0002929,69.9993,278.644,269.1066,90.9758,5.6306e-05,5.79e-06,0.0,0 STARLINK-5260,1 55275U 23010G   24127.79901949  .00000579  00000-0  56306-4 0  9999,2 55275  69.9993 278.6440 0002929 269.1066  90.9758 14.98335926 72630,6950.175,96.107,574.075,570.004,0.0
55275.0,STARLINK-5260,PAYLOAD,2024-05-07 12:48:04,14.98325623,0.0002983,69.9997,276.7932,268.4124,91.6693,-6.2383e-05,-8.37e-06,0.0,0 STARLINK-5260,1 55275U 23010G   24128.53338914 -.00000837  00000-0 -62383-4 0  9999,2 55275  69.9997 276.7932 0002983 268.4124  91.6693 14.98325623 72422,6950.206,96.107,574.145,569.998,0.0
55275.0,STARLINK-5260,PAYLOAD,2024-05-07 14:24:12,14.98325768,0.000296,69.9995,276.6248,265.4292,94.6529,-7.7795e-05,-1.021e-05,0.0,0 STARLINK-5260,1 55275U 23010G   24128.60014942 -.00001021  00000-0 -77795-4 0  9998,2 55275  69.9995 276.6248 0002960 265.4292  94.6529 14.98325768 72754,6950.206,96.107,574.128,570.014,0.0
55275.0,STARLINK-5260,PAYLOAD,2024-05-07 19:12:36,14.98327527,0.0003072,69.9991,276.1188,270.5435,89.5372,-3.695e-05,-5.34e-06,0.0,0 STARLINK-5260,1 55275U 23010G   24128.80042749 -.00000534  00000-0 -36950-4 0  9992,2 55275  69.9991 276.1188 0003072 270.5435  89.5372 14.98327527 72786,6950.201,96.107,574.201,569.93,0.0
55275.0,STARLINK-5260,PAYLOAD,2024-05-08 11:13:57,14.98331746,0.0003008,69.9991,274.4356,268.8607,91.2207,-1.3431e-06,-1.09e-06,0.0,0 STARLINK-5260,1 55275U 23010G   24129.46802370 -.00000109  00000-0 -13431-5 0  9997,2 55275  69.9991 274.4356 0003008 268.8607  91.2207 14.98331746 72565,6950.187,96.107,574.143,569.962,0.0
55275.0,STARLINK-5260,PAYLOAD,2024-05-08 14:26:13,14.98332143,0.0003006,69.9993,274.099,268.8221,91.2594,1.2888e-06,-7.8e-07,0.0,0 STARLINK-5260,1 55275U 23010G   24129.60154322 -.00000078  00000-0  12888-5 0  9999,2 55275  69.9993 274.0990 0003006 268.8221  91.2594 14.98332143 72906,6950.186,96.107,574.14,569.962,0.0
55275.0,STARLINK-5260,PAYLOAD,2024-05-08 19:14:36,14.98338832,0.0003025,69.9992,273.5939,268.7434,91.3378,6.4562e-05,6.78e-06,0.0,0 STARLINK-5260,1 55275U 23010G   24129.80181635  .00000678  00000-0  64562-4 0  9998,2 55275  69.9992 273.5939 0003025 268.7434  91.3378 14.98338832 72618,6950.166,96.106,574.133,569.928,0.0
55275.0,STARLINK-5260,PAYLOAD,2024-05-09 12:52:06,14.98324718,0.000298,69.9992,271.7425,268.6969,91.3848,3.0433e-05,2.7e-06,0.0,0 STARLINK-5260,1 55275U 23010G   24130.53618548  .00000270  00000-0  30433-4 0  9996,2 55275  69.9992 271.7425 0002980 268.6969  91.3848 14.98324718 72721,6950.209,96.107,574.145,570.003,0.0
55275.0,STARLINK-5260,PAYLOAD,2024-05-09 14:28:14,14.98324908,0.000298,69.9993,271.5742,268.7026,91.3792,3.1667e-05,2.85e-06,0.0,0 STARLINK-5260,1 55275U 23010G   24130.60294550  .00000285  00000-0  31667-4 0  9993,2 55275  69.9993 271.5742 0002980 268.7026  91.3792 14.98324908 73053,6950.209,96.107,574.145,570.002,0.0
55275.0,STARLINK-5260,PAYLOAD,2024-05-09 19:16:38,14.98328526,0.0002974,69.9995,271.0706,271.4618,88.62,7.146e-05,7.6e-06,0.0,0 STARLINK-5260,1 55275U 23010G   24130.80322269  .00000760  00000-0  71460-4 0  9997,2 55275  69.9995 271.0706 0002974 271.4618  88.6200 14.98328526 73087,6950.197,96.107,574.129,569.995,0.0
55275.0,STARLINK-5260,PAYLOAD,2024-05-10 12:54:07,14.98334128,0.0002944,69.9997,269.2171,275.1592,84.9231,-3.2322e-05,-4.79e-06,0.0,0 STARLINK-5260,1 55275U 23010G   24131.53758208 -.00000479  00000-0 -32322-4 0  9997,2 55275  69.9997 269.2171 0002944 275.1592  84.9231 14.98334128 72877,6950.18,96.107,574.091,569.999,0.0
55275.0,STARLINK-5260,PAYLOAD,2024-05-10 14:30:15,14.98333597,0.0002822,69.9999,269.0487,273.127,86.9566,3.0114e-06,-5.7e-07,0.0,0 STARLINK-5260,1 55275U 23010G   24131.60434123 -.00000057  00000-0  30114-5 0  9991,2 55275  69.9999 269.0487 0002822 273.1270  86.9566 14.98333597 73203,6950.182,96.107,574.008,570.085,0.0
55275.0,STARLINK-5260,PAYLOAD,2024-05-10 19:18:38,14.98336152,0.0002689,69.9999,268.5438,267.1088,92.9764,7.2322e-05,7.7e-06,0.0,0 STARLINK-5260,1 55275U 23010G   24131.80461684  .00000770  00000-0  72322-4 0  9992,2 55275  69.9999 268.5438 0002689 267.1088  92.9764 14.98336152 73234,6950.174,96.107,573.908,570.17,0.0
55275.0,STARLINK-5260,PAYLOAD,2024-05-11 12:56:03,14.98373403,0.0002794,70.0,266.6921,265.7921,94.2919,0.00046497,5.465e-05,0.0,0 STARLINK-5260,1 55275U 23010G   24132.53893472  .00005465  00000-0  46497-3 0  9996,2 55275  70.0000 266.6921 0002794 265.7921  94.2919 14.98373403 73027,6950.059,96.104,573.866,569.982,0.0
55275.0,STARLINK-5260,PAYLOAD,2024-05-11 17:44:29,14.98354672,0.0002908,69.9997,266.1878,258.4721,101.6111,0.00025978,3.01e-05,0.0,0 STARLINK-5260,1 55275U 23010G   24132.73922496  .00003010  00000-0  25978-3 0  9992,2 55275  69.9997 266.1878 0002908 258.4721 101.6111 14.98354672 73056,6950.117,96.105,574.003,569.961,0.0
55275.0,STARLINK-5260,PAYLOAD,2024-05-12 01:45:16,14.98278606,0.0002298,69.9999,265.3459,286.0346,74.056,-0.00060631,-7.31e-05,0.0,0 STARLINK-5260,1 55275U 23010G   24133.07310334 -.00007310  00000-0 -60631-3 0  9996,2 55275  69.9999 265.3459 0002298 286.0346  74.0560 14.98278606 73105,6950.352,96.11,573.814,570.62,0.0
55275.0,STARLINK-5260,PAYLOAD,2024-05-12 12:58:11,14.98305855,0.0002842,69.9996,264.1677,267.0984,92.9849,-0.00023208,-2.859e-05,0.0,0 STARLINK-5260,1 55275U 23010G   24133.54041614 -.00002859  00000-0 -23208-3 0  9992,2 55275  69.9996 264.1677 0002842 267.0984  92.9849 14.98305855 73176,6950.268,96.109,574.108,570.157,0.0
55275.0,STARLINK-5260,PAYLOAD,2024-05-12 14:34:20,14.98304747,0.0002735,69.9998,263.9989,268.6315,91.453,-0.00026022,-3.194e-05,0.0,0 STARLINK-5260,1 55275U 23010G   24133.60717830 -.00003194  00000-0 -26022-3 0  9999,2 55275  69.9998 263.9989 0002735 268.6315  91.4530 14.98304747 73504,6950.271,96.109,574.037,570.235,0.0
55275.0,STARLINK-5260,PAYLOAD,2024-05-12 17:46:36,14.9830935,0.0002905,69.9998,263.6631,270.1693,89.9133,-0.00021481,-2.654e-05,0.0,0 STARLINK-5260,1 55275U 23010G   24133.74069732 -.00002654  00000-0 -21481-3 0  9999,2 55275  69.9998 263.6631 0002905 270.1693  89.9133 14.98309350 73529,6950.257,96.108,574.141,570.103,0.0
55275.0,STARLINK-5260,PAYLOAD,2024-05-13 01:47:15,14.98325924,0.0002746,69.9989,262.8204,275.0808,85.0038,-0.00014117,-1.777e-05,0.0,0 STARLINK-5260,1 55275U 23010G   24134.07448815 -.00001777  00000-0 -14117-3 0  9992,2 55275  69.9989 262.8204 0002746 275.0808  85.0038 14.98325924 73257,6950.205,96.107,573.979,570.162,0.0
55275.0,STARLINK-5260,PAYLOAD,2024-05-13 14:36:19,14.9834717,0.0003885,69.9977,261.4724,275.2189,84.8526,-0.0003069,-3.755e-05,0.0,0 STARLINK-5260,1 55275U 23010G   24134.60855925 -.00003755  00000-0 -30690-3 0  9997,2 55275  69.9977 261.4724 0003885 275.2189  84.8526 14.98347170 73655,6950.14,96.106,574.705,569.305,0.0
